#dP2023  4 15  6  0  0.00000000      96 __u+U ITR00 EXT  IAC
## 2257 540000.00000000   900.00000000 60049 0.2500000000000
+  119   C06C07C08C09C10C11C12C13C14C16C19C20C21C22C23C24C25
+        C26C27C28C29C30C32C33C34C35C36C37C38C39C40C41C42C43
+        C44C45C46E01E02E03E04E05E07E08E09E10E11E12E13E14E15
+        E18E19E21E24E25E26E27E30E31E33E34E36G01G02G03G04G05
+        G06G07G08G09G10G11G12G13G14G15G16G17G18G19G20G21G22
+        G23G24G25G26G27G28G30G31G32J02J03J04R01R02R03R04R05
+        R07R08R09R11R12R13R14R15R16R17R18R19R20R21R22R24R25
++        10  9  9  9  8  8  9 10  8  9  8  9  7  9  7  7  7
++         8  7  8  8  8  8  7 10  7  8  8  8 10 10  7 10  7
++         9  7  8  6  8  7  7  8  7  7  7  7  8  8  7  6  7
++         6  6  7  7  7  8  7  7  7  7  6  7  6  6  8  6  8
++         8  9  6  7  8  9  7  7  6  7  7  7  7  8  8  7  6
++         8  8  7  6  6  7  6  7  7  8  8  9  6  7  8  7  7
++         8  7  7  7  7  8  7  7  8  9  7  9 10  8  8  9  8
%c M  cc GPS ccc cccc cccc cccc cccc ccccc ccccc ccccc ccccc
%c cc cc ccc ccc cccc cccc cccc cccc ccccc ccccc ccccc ccccc
%f  0.0000000  0.000000000  0.00000000000  0.000000000000000
%f  0.0000000  0.000000000  0.00000000000  0.000000000000000
%i    0    0    0    0      0      0      0      0         0
%i    0    0    0    0      0      0      0      0         0
/* IAC                                ULTRA-RAPID PREDICTION
/* S/V CLOCKS ARE ALIGNED TO GNSS TIME                      
/* G:C1WC2W R:C1PC2P E:C1XC5X C:C2IC6I J:C1CC2S             
/* PCV:IGS20_2247 OL/AL:FES2004  NONE     YN ORB:CoN CLK:CoN
*  2023 04 15  6 15  0.00000000
PC06  -1682.717730  32439.528545 -26710.860232   -197.043129
PC07 -15814.582871  27246.625852  27993.378874    126.074552
PC08 -15067.162695  39227.613436  -4463.385973    504.610681
PC09   5828.518958  36555.148660 -19257.694349    765.419912
PC10  -6293.633114  28028.267981  31050.690397    -33.655367
PC11   -685.733724 -19694.994530 -19690.835269    301.305179
PC12  15158.021962  -5876.345311 -22649.169887    572.813110
PC13  -9847.266823  39753.221844 -10417.622091    253.141344
PC14   8956.951528 -16915.904536  20351.693829    125.535087
PC16  -3703.238806  30383.480622 -28638.310439    108.843745
PC19   2088.028479  15660.006062 -22970.336760   -901.312990
PC20 -16884.530620  15684.244577 -15694.429982    624.672970
PC21  27175.785008  -6186.862316  -1661.222039   -910.089363
PC22  20831.770193   6630.942869 -17356.117380   -535.118266
PC23 -11686.443312 -14433.484235 -20827.114201   -906.168669
PC24  13004.345605 -22863.223986   9275.116318   -169.529298
PC25   -432.377518 -26350.058601  -9158.734117    107.033402
PC26  17106.735221  -7565.387542  20683.107166   -106.496051
PC27 -20311.144458  -1802.725342  19035.489055    125.855347
PC28 -21730.862225 -16598.919982   5573.305333     92.691513
PC29  10587.064255  22348.851259  12915.683363    107.356425
PC30  -7719.288248  14403.992710  22607.093002      0.394435
PC32 -27116.815204   6310.717074   1788.660917   -578.767768
PC33  -2042.932676 -15730.239908  22971.081209   -873.733506
PC34   6536.572370 -15385.355222 -22364.091889    149.295875
PC35  22095.210325  16342.596097  -4730.816440    645.783293
PC36   -698.683206  26572.199495   8524.557164   -500.109431
PC37 -17252.053204   5802.656180 -21149.173316   -789.863295
PC38 -18813.336791  37587.269708   4183.925030     71.878699
PC39  -7525.340690  26464.928827 -31842.943262     -2.551995
PC40 -21479.761337  20810.785455  29610.440882    -20.393008
PC41 -20322.343826  -7062.948800  17825.264639   -852.630641
PC42  18031.009571 -15439.971778  14743.597352   -736.363053
PC43  -9774.341806 -22377.811548 -13543.702384     16.777162
PC44  20510.543208   1079.405694 -18891.913109     76.439972
PC45  11795.967945  13987.980511  21072.202409    -85.258855
PC46 -12211.797601  23848.594084  -7874.233602    -47.102059
PE01 -17099.729112  23016.079483   7359.496035     -0.641791
PE02  16746.353621 -23113.807578  -7816.072780     32.439154
PE03   9157.434027 -14838.724859  23925.001319   -669.368759
PE04  12466.788316  18150.854420 -19768.625756   -100.933141
PE05  25902.706746  -2702.358738  14080.795560    -76.632609
PE07 -27179.312511 -10982.058516   4081.228241    -37.722003
PE08 -12253.812839 -18047.939468  20008.971006    -67.624728
PE09  27158.957390  10997.821874  -4241.351224   -905.364146
PE10  13292.465979  24005.784078 -11104.051787   -526.599383
PE11  16552.712090  15110.931789 -19335.268062   1611.308294
PE12   8187.573830  28366.098763  -1925.214675   -499.349404
PE13 -16369.929511 -15937.249346  18828.627455    -18.551545
PE14  30251.094072   3174.730360 -10323.849752    197.587404
PE15  -8030.142482 -28454.737279   1575.013855    -14.704492
PE18 -22756.916200  -5279.584050   5017.960968   -163.798654
PE19 -11991.081128  13443.468491 -23474.595839  -2762.164922
PE21 -24318.943637  13669.988512  -9906.187892   -523.471536
PE24  17808.485615   5072.030612  23069.068049    -45.127535
PE25  24334.487168 -13410.693395  10196.660506   -603.306250
PE26 -14933.162957   6667.140818  24672.598630     75.700265
PE27 -18321.352999  -4245.440081 -22863.233573    -25.494958
PE30  -1000.462941 -19827.247146 -21965.309905    -94.228881
PE31   1586.940164  19488.125395  22225.533560   -521.339096
PE33  -4995.640691  24065.699114  16483.158223   -446.304617
PE34   4853.477441 -24185.904880 -16368.960137    -40.304004
PE36  15018.329826  -5779.388765 -24845.103340    -41.599587
PG01 -13897.369390   4057.953452  21923.885614    193.183370
PG02   7857.836719 -17684.662697 -17840.143225   -605.878774
PG03 -22207.374747  11562.600935   8557.030505   -328.778827
PG04 -22319.696011   2061.152648 -14324.222479     17.220023
PG05  17582.065058   2390.670984 -19971.036559   -123.461386
PG06   5112.084768  26000.538804   -557.501914    586.857871
PG07  -8218.096573  18766.683156 -16183.857786    201.013991
PG08 -25902.760922  -6058.732082   2978.699952   -117.827497
PG09 -13732.840226  10567.446709 -20211.202847   -179.707336
PG10   5664.728320 -19839.062647  16725.215137    -32.891649
PG11  12300.255013  19078.663931 -13810.937569   -163.034578
PG12  22881.900902  -8268.109916  10262.162260   -364.109607
PG13  22767.575370  13670.134322  -2641.334161    505.960220
PG14  -8895.708779  20434.215195  14348.720177     25.599987
PG15  26323.412009   3075.592914   2823.019836     30.760426
PG16 -15456.562329  -6719.605889 -20935.580820   -508.715808
PG17    945.873537  16179.051495  21453.351381    710.629052
PG18   6002.618276 -21617.408638 -14099.753838   -224.821014
PG19  11190.034754  17604.370057  16380.343366    303.854446
PG20  10854.387231  11125.023763 -21511.259580    438.962679
PG21 -16596.288042  -5468.777302  20786.511247    154.213573
PG22 -13948.807750 -17515.056903  14859.353201    464.385310
PG23  15596.289445 -20368.953044   6576.562216     16.956722
PG24  16067.705485    208.055090  20841.430284   -152.309395
PG25  20154.266471 -17031.123054    854.834461    435.707186
PG26  -5121.028415 -16199.841987 -20458.748186    241.726193
PG27 -22059.587612 -13210.244102  -7720.118591     58.606153
PG28  -4974.536439 -26057.255974   1352.254567     65.129955
PG30   -370.702927  25530.199373  -6687.750156   -522.295077
PG31  -8902.952510 -23876.927253  -6811.982200   -214.000941
PG32  -5010.986114 -16695.898811  20272.873004   -451.869893
PJ02 -29141.160598  30554.269209   6032.412437     -1.529447
PJ03 -25819.016012  23175.771408  29031.226578      2.335354
PJ04 -33969.628677  22106.233386  -6543.922858     94.194739
PR01 -25231.414653   1003.221077   3563.763609     26.697557
PR02 -19445.606995   8169.720765 -14341.583238    -22.943713
PR03  -2278.442332  11019.631277 -22843.658292     76.053846
PR04  15703.314337   7520.235987 -18602.298097    183.373985
PR05  25146.943658    145.228651  -4190.856360    110.979070
PR07   1259.244657 -11012.448513  23017.502005     53.848515
PR08 -15919.549197  -7505.188429  18540.272805    -70.353433
PR09  13533.209537 -19747.167466   8934.406505    114.799561
PR11  -4023.998841 -14630.852717 -20500.455675    -36.318242
PR12 -13242.676878   4204.820412 -21373.973920     26.459249
PR13 -13977.432253  18468.203826 -10707.375545    -33.990486
PR14  -6198.016855  23276.223749   8376.072968     24.553516
PR15   4739.056452  13703.258348  21000.580091     89.792562
PR16  13000.981003  -4016.155779  21588.299332     13.533616
PR17   6031.520153  20308.602712  14235.794441    621.345217
PR18  14783.474950  20674.823015  -1755.064915     76.608858
PR19  15905.132222  12014.915811 -15917.948793   -229.113548
PR20   7383.015432  -7603.872128 -23200.731846    -91.140891
PR21  -7042.272890 -20851.828045 -12882.642028     -0.109538
PR22 -14439.350819 -20868.313035   2711.083970     79.404057
PR24  -7132.287348   8646.092022  22926.696181    162.067385
PR25  -4756.747374 -20561.212075 -14315.190251     61.697382
EOF
